ORBCOMM FM37 [-]        
1 33064U 08031E   23351.33841422  .00001661  00000+0  27093-3 0  9996
2 33064  48.4425  59.1600 0006016 199.0126 280.3789 14.75568588833038
ORBCOMM FM40 [-]        
1 33065U 08031F   23351.98590394  .00002794  00000+0  42399-3 0  9991
2 33065  48.4439  46.7718 0007424 208.8934 211.6196 14.76709518833597
VESSELSAT 1 [-]         
1 37840U 11058C   23350.90389030  .00000345  00000+0  43938-4 0  9994
2 37840  19.9601 170.8328 0013720 276.8495  83.0348 14.11093367628763
ORBCOMM FM109 [+]       
1 40086U 14040A   23351.33937683  .00000908  00000+0  24130-3 0  9992
2 40086  47.0043  79.5082 0002554 296.3073  63.7549 14.56169826501160
ORBCOMM FM107 [+]       
1 40087U 14040B   23351.37343829  .00000906  00000+0  24070-3 0  9991
2 40087  47.0062  80.2893 0002452 268.8020  91.2584 14.56163425501247
ORBCOMM FM106 [-]       
1 40088U 14040C   23351.97753826  .00001576  00000+0  31498-3 0  9996
2 40088  47.0623 301.1510 0017832  47.3666 312.8724 14.66354075503295
ORBCOMM FM111 [-]       
1 40089U 14040D   23351.73755783  .00001982  00000+0  28039-3 0  9993
2 40089  47.0044 220.1296 0032710 102.3088 258.1472 14.80587922508951
ORBCOMM FM104 [-]       
1 40090U 14040E   23351.47400960  .00000803  00000+0  22424-3 0  9993
2 40090  47.0051 107.1433 0018025 226.1060 133.8336 14.54701391500821
